NORAD_CAT_ID,OBJECT_NAME,OBJECT_TYPE,EPOCH,MEAN_MOTION,ECCENTRICITY,INCLINATION,RA_OF_ASC_NODE,ARG_OF_PERICENTER,MEAN_ANOMALY,BSTAR,MEAN_MOTION_DOT,MEAN_MOTION_DDOT,TLE_LINE0,TLE_LINE1,TLE_LINE2,SEMIMAJOR_AXIS,PERIOD,APOGEE,PERIGEE,DECAYED
55665.0,STARLINK-5474,PAYLOAD,2023-11-14 18:16:25,14.98556789,0.0003047,69.9978,137.306,263.6626,96.4186,-0.0035982,-0.00043016,0.0,0 STARLINK-5474,1 55665U 23021AP  23318.76140321 -.00043016  00000-0 -35982-2 0  9991,2 55665  69.9978 137.3060 0003047 263.6626  96.4186 14.98556789 42273,6949.492,96.092,573.474,569.239,0.0
55665.0,STARLINK-5474,PAYLOAD,2023-11-14 21:28:40,14.98548286,0.0003283,69.9979,136.9695,269.8704,90.2079,-0.0034927,-0.00041756,0.0,0 STARLINK-5474,1 55665U 23021AP  23318.89490975 -.00041756  00000-0 -34927-2 0  9995,2 55665  69.9979 136.9695 0003283 269.8704  90.2079 14.98548286 42591,6949.518,96.093,573.664,569.101,0.0
55665.0,STARLINK-5474,PAYLOAD,2023-11-15 03:53:11,14.98471477,0.0003488,69.9979,136.2963,271.6181,88.4578,-0.0023642,-0.00028293,0.0,0 STARLINK-5474,1 55665U 23021AP  23319.16194386 -.00028293  00000-0 -23642-2 0  9996,2 55665  69.9979 136.2963 0003488 271.6181  88.4578 14.98471477 42331,6949.755,96.098,574.044,569.196,0.0
55665.0,STARLINK-5474,PAYLOAD,2023-11-15 13:30:01,14.98328145,0.0003308,69.9979,135.2863,269.3463,90.7317,-2.8e-05,-4.27e-06,0.0,0 STARLINK-5474,1 55665U 23021AP  23319.56252203 -.00000427  00000-0 -28000-4 0  9997,2 55665  69.9979 135.2863 0003308 269.3463  90.7317 14.98328145 42696,6950.199,96.107,574.363,569.765,0.0
55665.0,STARLINK-5474,PAYLOAD,2023-11-15 22:00:00,14.98313018,0.0003391,69.9996,134.3933,272.66,197.197,0.003218,0.00038499,0.0,0 STARLINK-5474,1 55665U 23021AP  23319.91667824  .00038499  00000-0  32180-2 0  9995,2 55665  69.9996 134.3933 0003391 272.6600 197.1970 14.98313018 42448,6950.245,96.108,574.467,569.754,0.0
55665.0,STARLINK-5474,PAYLOAD,2023-11-16 11:55:54,14.98328905,0.0003308,69.9983,132.9306,270.5546,89.5234,1.7464e-05,1.15e-06,0.0,0 STARLINK-5474,1 55665U 23021AP  23320.49716099  .00000115  00000-0  17464-4 0  9993,2 55665  69.9983 132.9306 0003308 270.5546  89.5234 14.98328905 42534,6950.196,96.107,574.36,569.762,0.0
55665.0,STARLINK-5474,PAYLOAD,2023-11-16 18:20:26,14.98329491,0.0003319,69.9981,132.2568,270.1479,89.93,4.9057e-06,-3.5e-07,0.0,0 STARLINK-5474,1 55665U 23021AP  23320.76420092 -.00000035  00000-0  49057-5 0  9994,2 55665  69.9981 132.2568 0003319 270.1479  89.9300 14.98329491 42874,6950.194,96.107,574.366,569.753,0.0
55665.0,STARLINK-5474,PAYLOAD,2023-11-17 11:57:55,14.98330291,0.0003309,69.9982,130.4054,269.7055,90.3724,3.4579e-05,3.2e-06,0.0,0 STARLINK-5474,1 55665U 23021AP  23321.49855935  .00000320  00000-0  34579-4 0  9991,2 55665  69.9982 130.4054 0003309 269.7055  90.3724 14.98330291 42683,6950.192,96.107,574.357,569.757,0.0
55665.0,STARLINK-5474,PAYLOAD,2023-11-17 13:34:03,14.98330688,0.0003308,69.9982,130.2371,269.7087,90.3693,3.792e-05,3.59e-06,0.0,0 STARLINK-5474,1 55665U 23021AP  23321.56531895  .00000359  00000-0  37920-4 0  9990,2 55665  69.9982 130.2371 0003308 269.7087  90.3693 14.98330688 42996,6950.191,96.107,574.355,569.757,0.0
55665.0,STARLINK-5474,PAYLOAD,2023-11-17 21:34:43,14.983313,0.0003306,69.9982,129.3954,269.708,90.37,3.0588e-05,2.72e-06,0.0,0 STARLINK-5474,1 55665U 23021AP  23321.89911849  .00000272  00000-0  30588-4 0  9994,2 55665  69.9982 129.3954 0003306 269.7080  90.3700 14.98331300 43041,6950.189,96.107,574.352,569.756,0.0
55665.0,STARLINK-5474,PAYLOAD,2023-11-18 11:59:56,14.98331257,0.000326,69.9984,127.8804,269.8838,90.1947,3.3199e-06,-5.3e-07,0.0,0 STARLINK-5474,1 55665U 23021AP  23322.49995882 -.00000053  00000-0  33199-5 0  9990,2 55665  69.9984 127.8804 0003260 269.8838  90.1947 14.98331257 42839,6950.189,96.107,574.32,569.788,0.0
55665.0,STARLINK-5474,PAYLOAD,2023-11-19 12:01:57,14.98330895,0.000323,69.9984,125.3554,270.9277,89.1512,-1.6474e-05,-2.9e-06,0.0,0 STARLINK-5474,1 55665U 23021AP  23323.50135863 -.00000290  00000-0 -16474-4 0  9998,2 55665  69.9984 125.3554 0003230 270.9277  89.1512 14.98330895 42980,6950.19,96.107,574.3,569.81,0.0
55665.0,STARLINK-5474,PAYLOAD,2023-11-19 13:38:05,14.98331097,0.0003225,69.9984,125.187,271.0148,89.0642,-1.3587e-05,-2.55e-06,0.0,0 STARLINK-5474,1 55665U 23021AP  23323.56811834 -.00000255  00000-0 -13587-4 0  9996,2 55665  69.9984 125.1870 0003225 271.0148  89.0642 14.98331097 43295,6950.189,96.107,574.296,569.813,0.0
55665.0,STARLINK-5474,PAYLOAD,2023-11-19 20:02:37,14.98331045,0.0003242,69.9985,124.5139,269.866,90.2127,-1.3513e-05,-2.54e-06,0.0,0 STARLINK-5474,1 55665U 23021AP  23323.83515797 -.00000254  00000-0 -13513-4 0  9993,2 55665  69.9985 124.5139 0003242 269.8660  90.2127 14.98331045 43330,6950.19,96.107,574.308,569.801,0.0
55665.0,STARLINK-5474,PAYLOAD,2023-11-20 13:40:06,14.98331842,0.0003266,69.9985,122.6624,270.1372,89.9413,1.0188e-05,2.9e-07,0.0,0 STARLINK-5474,1 55665U 23021AP  23324.56951596  .00000029  00000-0  10188-4 0  9998,2 55665  69.9985 122.6624 0003266 270.1372  89.9413 14.98331842 43449,6950.187,96.107,574.322,569.782,0.0
55665.0,STARLINK-5474,PAYLOAD,2023-11-20 20:04:38,14.98332435,0.0003259,69.9985,121.9891,269.8896,90.189,2.0387e-05,1.5e-06,0.0,0 STARLINK-5474,1 55665U 23021AP  23324.83655485  .00000150  00000-0  20387-4 0  9993,2 55665  69.9985 121.9891 0003259 269.8896  90.1890 14.98332435 43188,6950.185,96.107,574.315,569.785,0.0
55665.0,STARLINK-5474,PAYLOAD,2023-11-21 13:42:07,14.9832992,0.0003215,69.9986,120.1371,269.7817,90.2973,-1.3336e-05,-2.52e-06,0.0,0 STARLINK-5474,1 55665U 23021AP  23325.57091690 -.00000252  00000-0 -13336-4 0  9998,2 55665  69.9986 120.1371 0003215 269.7817  90.2973 14.98329920 43590,6950.193,96.107,574.293,569.824,0.0
55665.0,STARLINK-5474,PAYLOAD,2023-11-21 20:06:39,14.98331494,0.0003176,69.9984,119.4635,268.5154,91.5641,5.3223e-06,-3e-07,0.0,0 STARLINK-5474,1 55665U 23021AP  23325.83795514 -.00000030  00000-0  53223-5 0  9996,2 55665  69.9984 119.4635 0003176 268.5154  91.5641 14.98331494 43639,6950.188,96.107,574.261,569.846,0.0
55665.0,STARLINK-5474,PAYLOAD,2023-11-22 13:44:07,14.98335525,0.0003198,69.9988,117.6117,271.4156,88.6637,3.8863e-05,3.71e-06,0.0,0 STARLINK-5474,1 55665U 23021AP  23326.57230990  .00000371  00000-0  38863-4 0  9999,2 55665  69.9988 117.6117 0003198 271.4156  88.6637 14.98335525 43740,6950.176,96.107,574.263,569.818,0.0
55665.0,STARLINK-5474,PAYLOAD,2023-11-22 18:32:31,14.98338732,0.0003225,69.9986,117.107,268.6289,91.45,6.6582e-05,7.02e-06,0.0,0 STARLINK-5474,1 55665U 23021AP  23326.77258597  .00000702  00000-0  66582-4 0  9991,2 55665  69.9986 117.1070 0003225 268.6289  91.4500 14.98338732 43471,6950.166,96.106,574.272,569.789,0.0
55665.0,STARLINK-5474,PAYLOAD,2023-11-22 20:08:39,14.9834008,0.0003224,69.9987,116.9388,268.5957,91.4833,8.2692e-05,8.94e-06,0.0,0 STARLINK-5474,1 55665U 23021AP  23326.83934430  .00000894  00000-0  82692-4 0  9997,2 55665  69.9987 116.9388 0003224 268.5957  91.4833 14.98340080 43783,6950.162,96.106,574.267,569.786,0.0
55665.0,STARLINK-5474,PAYLOAD,2023-11-23 12:10:01,14.98324145,0.0003347,69.999,115.2552,278.0713,82.0066,-7.3208e-05,-9.66e-06,0.0,0 STARLINK-5474,1 55665U 23021AP  23327.50695972 -.00000966  00000-0 -73208-4 0  9992,2 55665  69.9990 115.2552 0003347 278.0713  82.0066 14.98324145 43580,6950.211,96.107,574.402,569.75,0.0
55665.0,STARLINK-5474,PAYLOAD,2023-11-23 13:46:09,14.98321846,0.0003008,69.9987,115.087,267.0932,92.9883,-0.00010334,-1.326e-05,0.0,0 STARLINK-5474,1 55665U 23021AP  23327.57372106 -.00001326  00000-0 -10334-3 0  9991,2 55665  69.9987 115.0870 0003008 267.0932  92.9883 14.98321846 43898,6950.218,96.108,574.174,569.992,0.0
55665.0,STARLINK-5474,PAYLOAD,2023-11-23 20:10:41,14.98322868,0.0003303,69.9987,114.4138,274.7052,85.373,-6.9294e-05,-9.2e-06,0.0,0 STARLINK-5474,1 55665U 23021AP  23327.84076110 -.00000920  00000-0 -69294-4 0  9996,2 55665  69.9987 114.4138 0003303 274.7052  85.3730 14.98322868 43931,6950.215,96.107,574.376,569.784,0.0
55665.0,STARLINK-5474,PAYLOAD,2023-11-24 12:12:01,14.98384075,0.0002538,69.9985,112.7318,263.4188,96.6682,-0.00094308,-0.00011343,0.0,0 STARLINK-5474,1 55665U 23021AP  23328.50835156 -.00011343  00000-0 -94308-3 0  9997,2 55665  69.9985 112.7318 0002538 263.4188  96.6682 14.98384075 43731,6950.026,96.104,573.655,570.127,0.0
55665.0,STARLINK-5474,PAYLOAD,2023-11-24 13:48:10,14.98329925,0.0002937,70.0005,112.5648,266.6786,93.4037,-3.8866e-05,-5.57e-06,0.0,0 STARLINK-5474,1 55665U 23021AP  23328.57511586 -.00000557  00000-0 -38866-4 0  9995,2 55665  70.0005 112.5648 0002937 266.6786  93.4037 14.98329925 44040,6950.193,96.107,574.099,570.017,0.0
55665.0,STARLINK-5474,PAYLOAD,2023-11-24 18:36:33,14.98332417,0.0002802,70.0,112.0588,262.7319,97.3521,-1.9905e-05,-3.3e-06,0.0,0 STARLINK-5474,1 55665U 23021AP  23328.77539324 -.00000330  00000-0 -19905-4 0  9999,2 55665  70.0000 112.0588 0002802 262.7319  97.3521 14.98332417 43773,6950.185,96.107,573.998,570.103,0.0
55665.0,STARLINK-5474,PAYLOAD,2023-11-25 13:50:10,14.9832621,0.0002961,69.9998,110.0387,269.9844,90.0975,0.00012423,1.389e-05,0.0,0 STARLINK-5474,1 55665U 23021AP  23329.57651261  .00001389  00000-0  12423-3 0  9993,2 55665  69.9998 110.0387 0002961 269.9844  90.0975 14.98326210 44193,6950.205,96.107,574.128,570.012,0.0
55665.0,STARLINK-5474,PAYLOAD,2023-11-25 18:38:34,14.98329967,0.0002879,70.0,109.5339,268.3603,91.7226,0.00015737,1.785e-05,0.0,0 STARLINK-5474,1 55665U 23021AP  23329.77678938  .00001785  00000-0  15737-3 0  9996,2 55665  70.0000 109.5339 0002879 268.3603  91.7226 14.98329967 44227,6950.193,96.107,574.059,570.057,0.0
55665.0,STARLINK-5474,PAYLOAD,2023-11-26 13:52:11,14.9833481,0.0002911,69.9999,107.5139,265.7825,94.3001,2.3766e-05,1.91e-06,0.0,0 STARLINK-5474,1 55665U 23021AP  23330.57790747  .00000191  00000-0  23766-4 0  9991,2 55665  69.9999 107.5139 0002911 265.7825  94.3001 14.98334810 44347,6950.178,96.107,574.066,570.02,0.0
